COSMOS 2251 DEB         
1 37956U 93036BPF 24153.58210657  .00139201  00000+0  56019-2 0  9998
2 37956  74.0195 130.9842 0014746 295.2364  64.7307 15.24125263719058
COSMOS 2251 DEB         
1 37959U 93036BPJ 24150.14071231  .00002400  00000+0  58636-3 0  9991
2 37959  74.0136  44.2732 0063418 321.0955 189.5336 14.51959301720142
COSMOS 2251 DEB         
1 37960U 93036BPK 24153.18717775  .00001326  00000+0  63084-3 0  9999
2 37960  74.0611  85.0058 0261846 236.9340 120.6407 14.03965686695408
COSMOS 2251 DEB         
1 37961U 93036BPL 24152.30922980  .00007469  00000+0  19038-2 0  9992
2 37961  74.0449 116.7569 0048169 334.1122  25.7628 14.50037823720018
COSMOS 2251 DEB         
1 37966U 93036BPR 24148.63797164  .00011198  00000+0  18098-2 0  9991
2 37966  73.9923 281.9237 0017248 278.4042  81.5174 14.71321400769446
COSMOS 2251 DEB         
1 37967U 93036BPS 24152.56956722  .00012470  00000+0  40280-2 0  9998
2 37967  74.0201  88.0012 0169714 359.3262   0.7632 14.31260333734980
COSMOS 2251 DEB         
1 37968U 93036BPT 24148.83155344  .00007210  00000+0  77308-3 0  9993
2 37968  74.0076 327.0820 0109527 227.9419 131.2404 14.84450167518042
COSMOS 2251 DEB         
1 37969U 93036BPU 24128.17190393  .00010077  00000+0  38879-2 0  9996
2 37969  73.9821 289.5298 0136891 262.0893  96.4698 14.25274104430859
COSMOS 2251 DEB         
1 37971U 93036BPW 24146.91685323  .00006882  00000+0  22527-2 0  9995
2 37971  73.9998  15.7621 0078920 281.9376  77.2936 14.36864986758311
COSMOS 2251 DEB         
1 37973U 93036BPY 24149.66731646  .00002345  00000+0  78037-3 0  9990
2 37973  74.0295 264.4812 0038774 119.3794 241.1241 14.37768303568835
COSMOS 2251 DEB         
1 37975U 93036BQA 24147.77937988  .00015445  00000+0  35998-2 0  9992
2 37975  74.0163 328.7667 0150976  99.5047 262.3211 14.48002233779833
COSMOS 2251 DEB         
1 37977U 93036BQC 24149.19945275  .00024547  00000+0  41001-2 0  9995
2 37977  73.9575 107.9707 0018223 348.0830  11.9907 14.69706759734122
COSMOS 2251 DEB         
1 37985U 93036BQL 24149.46784021  .00000146  00000+0  60133-4 0  9992
2 37985  74.0251 219.3628 0020435 121.8958 238.4186 14.35146805568358
COSMOS 2251 DEB         
1 37988U 93036BQP 24153.03074123  .00003721  00000+0  77419-3 0  9994
2 37988  74.0684  17.7469 0079838 203.2247 156.5305 14.58409978159268
COSMOS 2251 DEB         
1 37993U 93036BQU 24148.74196762  .00004051  00000+0  10594-2 0  9993
2 37993  74.0280 155.6757 0027457  13.6117 346.5777 14.49465146571134
COSMOS 2251 DEB         
1 37994U 93036BQV 24153.57912328  .00001060  00000+0  36240-3 0  9999
2 37994  74.0366 226.6312 0022731  84.4654 275.9091 14.37386060690239
COSMOS 2251 DEB         
1 37996U 93036BQX 24151.84479461  .00022358  00000+0  12543-1 0  9996
2 37996  74.0662  98.0711 0262650 342.1780  17.0264 13.94559613482687
COSMOS 2251 DEB         
1 37998U 93036BQZ 24149.53079922  .00001637  00000+0  51170-3 0  9997
2 37998  74.0359 201.9889 0019223  54.1298 306.1639 14.41442613561593
COSMOS 2251 DEB         
1 38001U 93036BRC 24150.00407491  .00003966  00000+0  64973-3 0  9995
2 38001  74.0083 153.6407 0072978  81.9146 311.3828 14.69326326763390
COSMOS 2251 DEB         
1 38004U 93036BRF 24149.48254830  .00012860  00000+0  21769-2 0  9993
2 38004  74.0309  62.2635 0018173 214.9470 145.0509 14.69249044574835
COSMOS 2251 DEB         
1 38006U 93036BRH 24152.27187472  .00010334  00000+0  35933-2 0  9995
2 38006  73.8615   5.4922 0099160  67.5067 293.6545 14.32795340548927
COSMOS 2251 DEB         
1 38054U 93036BRL 24151.33064431  .00002296  00000+0  20832-2 0  9993
2 38054  73.9531 100.0951 0379461 188.1961 329.8011 13.55969817595490
COSMOS 2251 DEB         
1 38055U 93036BRM 24146.51004674  .00007250  00000+0  12645-2 0  9999
2 38055  74.0138 229.8462 0076812 139.8369 233.8677 14.66214199716061
COSMOS 2251 DEB         
1 38060U 93036BRS 24148.66335867  .00003297  00000+0  69336-3 0  9991
2 38060  74.0455 294.0399 0064172 185.1543 174.8970 14.58678247637236
COSMOS 2251 DEB         
1 38062U 93036BRU 24146.22455157  .00014074  00000+0  24826-2 0  9997
2 38062  74.0129 329.7271 0022684 231.8804 243.4743 14.67348585724329
COSMOS 2251 DEB         
1 38064U 93036BRW 24152.53529172  .00004420  00000+0  11426-2 0  9995
2 38064  74.0259 102.4521 0052289 356.0903   3.9840 14.49397203637278
COSMOS 2251 DEB         
1 38065U 93036BRX 24153.10029076  .00034085  00000+0  41700-2 0  9996
2 38065  74.0203  35.6595 0017528 189.9912 320.8081 14.82954597639874
COSMOS 2251 DEB         
1 38067U 93036BRZ 24147.10197837  .00003667  00000+0  78266-3 0  9992
2 38067  74.0195 274.3650 0075003 203.3859 331.5054 14.57491849543032
COSMOS 2251 DEB         
1 38068U 93036BSA 24152.69440153  .00001202  00000+0  43492-3 0  9991
2 38068  74.0223 256.1055 0025848 120.6418 239.7287 14.34369520586114
COSMOS 2251 DEB         
1 38069U 93036BSB 24153.29269459  .00058848  00000+0  87326-2 0  9998
2 38069  74.1730  87.6677 0040491  48.6135 107.5930 14.74160559530416
