OBJECT_NAME,OBJECT_ID,EPOCH,MEAN_MOTION,ECCENTRICITY,INCLINATION,RA_OF_ASC_NODE,ARG_OF_PERICENTER,MEAN_ANOMALY,EPHEMERIS_TYPE,CLASSIFICATION_TYPE,NORAD_CAT_ID,ELEMENT_SET_NO,REV_AT_EPOCH,BSTAR,MEAN_MOTION_DOT,MEAN_MOTION_DDOT
COSMOS 2251 DEB,1993-036BPF,2024-06-01T13:58:14.007648,15.24125263,0.0014746,74.0195,130.9842,295.2364,64.7307,0,U,37956,999,71905,0.0056019,0.00139201,0
COSMOS 2251 DEB,1993-036BPJ,2024-05-29T03:22:37.543584,14.51959301,0.0063418,74.0136,44.2732,321.0955,189.5336,0,U,37959,999,72014,0.00058636,2.4e-05,0
COSMOS 2251 DEB,1993-036BPK,2024-06-01T04:29:32.157600,14.03965686,0.0261846,74.0611,85.0058,236.934,120.6407,0,U,37960,999,69540,0.00063084,1.326e-05,0
COSMOS 2251 DEB,1993-036BPL,2024-05-31T07:25:17.454720,14.50037823,0.0048169,74.0449,116.7569,334.1122,25.7628,0,U,37961,999,72001,0.0019038,7.469e-05,0
COSMOS 2251 DEB,1993-036BPR,2024-05-27T15:18:40.749696,14.713214,0.0017248,73.9923,281.9237,278.4042,81.5174,0,U,37966,999,77153,0.0018098,0.00011198,0
COSMOS 2251 DEB,1993-036BPS,2024-05-31T13:40:10.607808,14.31260333,0.0169714,74.0201,88.0012,359.3262,0.7632,0,U,37967,999,73498,0.004028,0.0001247,0
COSMOS 2251 DEB,1993-036BPT,2024-05-27T19:57:26.217216,14.84450167,0.0109527,74.0076,327.082,227.9419,131.2404,0,U,37968,999,51804,0.00077308,7.21e-05,0
COSMOS 2251 DEB,1993-036BPU,2024-05-07T04:07:32.499552,14.25274104,0.0136891,73.9821,289.5298,262.0893,96.4698,0,U,37969,999,43085,0.0038879,0.00010077,0
COSMOS 2251 DEB,1993-036BPW,2024-05-25T22:00:16.119072,14.36864986,0.007892,73.9998,15.7621,281.9376,77.2936,0,U,37971,999,75831,0.0022527,6.882e-05,0
COSMOS 2251 DEB,1993-036BPY,2024-05-28T16:00:56.142144,14.37768303,0.0038774,74.0295,264.4812,119.3794,241.1241,0,U,37973,999,56883,0.00078037,2.345e-05,0
COSMOS 2251 DEB,1993-036BQA,2024-05-26T18:42:18.421632,14.48002233,0.0150976,74.0163,328.7667,99.5047,262.3211,0,U,37975,999,77983,0.0035998,0.00015445,0
COSMOS 2251 DEB,1993-036BQC,2024-05-28T04:47:12.717600,14.69706759,0.0018223,73.9575,107.9707,348.083,11.9907,0,U,37977,999,73412,0.0041001,0.00024547,0
COSMOS 2251 DEB,1993-036BQL,2024-05-28T11:13:41.394144,14.35146805,0.0020435,74.0251,219.3628,121.8958,238.4186,0,U,37985,999,56835,6.0133e-05,1.46e-06,0
COSMOS 2251 DEB,1993-036BQP,2024-06-01T00:44:16.042272,14.58409978,0.0079838,74.0684,17.7469,203.2247,156.5305,0,U,37988,999,15926,0.00077419,3.721e-05,0
COSMOS 2251 DEB,1993-036BQU,2024-05-27T17:48:26.002368,14.49465146,0.0027457,74.028,155.6757,13.6117,346.5777,0,U,37993,999,57113,0.0010594,4.051e-05,0
COSMOS 2251 DEB,1993-036BQV,2024-06-01T13:53:56.251392,14.3738606,0.0022731,74.0366,226.6312,84.4654,275.9091,0,U,37994,999,69023,0.0003624,1.06e-05,0
COSMOS 2251 DEB,1993-036BQX,2024-05-30T20:16:30.254304,13.94559613,0.026265,74.0662,98.0711,342.178,17.0264,0,U,37996,999,48268,0.012543,0.00022358,0
COSMOS 2251 DEB,1993-036BQZ,2024-05-28T12:44:21.052608,14.41442613,0.0019223,74.0359,201.9889,54.1298,306.1639,0,U,37998,999,56159,0.0005117,1.637e-05,0
COSMOS 2251 DEB,1993-036BRC,2024-05-29T00:05:52.072224,14.69326326,0.0072978,74.0083,153.6407,81.9146,311.3828,0,U,38001,999,76339,0.00064973,3.966e-05,0
COSMOS 2251 DEB,1993-036BRF,2024-05-28T11:34:52.173120,14.69249044,0.0018173,74.0309,62.2635,214.947,145.0509,0,U,38004,999,57483,0.0021769,0.0001286,0
COSMOS 2251 DEB,1993-036BRH,2024-05-31T06:31:29.975808,14.3279534,0.009916,73.8615,5.4922,67.5067,293.6545,0,U,38006,999,54892,0.0035933,0.00010334,0
COSMOS 2251 DEB,1993-036BRL,2024-05-30T07:56:07.668384,13.55969817,0.0379461,73.9531,100.0951,188.1961,329.8011,0,U,38054,999,59549,0.0020832,2.296e-05,0
COSMOS 2251 DEB,1993-036BRM,2024-05-25T12:14:28.038336,14.66214199,0.0076812,74.0138,229.8462,139.8369,233.8677,0,U,38055,999,71606,0.0012645,7.25e-05,0
COSMOS 2251 DEB,1993-036BRS,2024-05-27T15:55:14.189088,14.58678247,0.0064172,74.0455,294.0399,185.1543,174.897,0,U,38060,999,63723,0.00069336,3.297e-05,0
COSMOS 2251 DEB,1993-036BRU,2024-05-25T05:23:21.255648,14.67348585,0.0022684,74.0129,329.7271,231.8804,243.4743,0,U,38062,999,72432,0.0024826,0.00014074,0
COSMOS 2251 DEB,1993-036BRW,2024-05-31T12:50:49.204608,14.49397203,0.0052289,74.0259,102.4521,356.0903,3.984,0,U,38064,999,63727,0.0011426,4.42e-05,0
COSMOS 2251 DEB,1993-036BRX,2024-06-01T02:24:25.121664,14.82954597,0.0017528,74.0203,35.6595,189.9912,320.8081,0,U,38065,999,63987,0.00417,0.00034085,0
COSMOS 2251 DEB,1993-036BRZ,2024-05-26T02:26:50.931168,14.57491849,0.0075003,74.0195,274.365,203.3859,331.5054,0,U,38067,999,54303,0.00078266,3.667e-05,0
COSMOS 2251 DEB,1993-036BSA,2024-05-31T16:39:56.292192,14.3436952,0.0025848,74.0223,256.1055,120.6418,239.7287,0,U,38068,999,58611,0.00043492,1.202e-05,0
COSMOS 2251 DEB,1993-036BSB,2024-06-01T07:01:28.812576,14.74160559,0.0040491,74.173,87.6677,48.6135,107.593,0,U,38069,999,53041,0.0087326,0.00058848,0
